start=new Date('2021-10-12T00:00:00.000Z').valueOf();
sats=[{"INCLINATION":"53.0547","CENTER_NAME":"EARTH","ARG_OF_PERICENTER":"63.5933","MEAN_ELEMENT_THEORY":"SGP4","MEAN_MOTION_DOT":"0.00000120","TLE_LINE1":"1 44718U 19074F   21284.77512048  .00000120  00000-0  26953-4 0  9998","GP_ID":"186927757","DECAY_DATE":null,"PERIAPSIS":"546.005","COUNTRY_CODE":"US","NORAD_CAT_ID":"44718","MEAN_ANOMALY":"296.5232","RCS_SIZE":"LARGE","REF_FRAME":"TEME","OBJECT_TYPE":"PAYLOAD","REV_AT_EPOCH":"10609","SEMIMAJOR_AXIS":"6925.332","OBJECT_NAME":"STARLINK-1012","ECCENTRICITY":"0.00017210","EPOCH":"2021-10-11T18:36:10.409472","RA_OF_ASC_NODE":"213.8087","MEAN_MOTION":"15.06405452","SITE":"AFETR","LAUNCH_DATE":"2019-11-11","EPHEMERIS_TYPE":"0","BSTAR":"0.00002695300000","OBJECT_ID":"2019-074F","CLASSIFICATION_TYPE":"U","TIME_SYSTEM":"UTC","APOAPSIS":"548.389","MEAN_MOTION_DDOT":"0.0000000000000","FILE":"3157563","TLE_LINE2":"2 44718  53.0547 213.8087 0001721  63.5933 296.5232 15.06405452106096","PERIOD":"95.592","ELEMENT_SET_NO":"999"},{"MEAN_ANOMALY":"292.9431","RCS_SIZE":"LARGE","INCLINATION":"53.0532","CENTER_NAME":"EARTH","ARG_OF_PERICENTER":"67.1739","MEAN_ELEMENT_THEORY":"SGP4","TLE_LINE1":"1 44719U 19074G   21284.51711335  .00002252  00000-0  17008-3 0  9999","MEAN_MOTION_DOT":"0.00002252","GP_ID":"186900710","PERIAPSIS":"546.040","DECAY_DATE":null,"NORAD_CAT_ID":"44719","COUNTRY_CODE":"US","RA_OF_ASC_NODE":"214.9556","EPOCH":"2021-10-11T12:24:38.593440","ECCENTRICITY":"0.00017150","LAUNCH_DATE":"2019-11-11","SITE":"AFETR","MEAN_MOTION":"15.06395388","BSTAR":"0.00017008000000","EPHEMERIS_TYPE":"0","CLASSIFICATION_TYPE":"U","OBJECT_ID":"2019-074G","TIME_SYSTEM":"UTC","APOAPSIS":"548.415","MEAN_MOTION_DDOT":"0.0000000000000","FILE":"3157239","PERIOD":"95.592","ELEMENT_SET_NO":"999","TLE_LINE2":"2 44719  53.0532 214.9556 0001715  67.1739 292.9431 15.06395388106223","REF_FRAME":"TEME","OBJECT_TYPE":"PAYLOAD","SEMIMAJOR_AXIS":"6925.363","REV_AT_EPOCH":"10622","OBJECT_NAME":"STARLINK-1013"},{"OBJECT_NAME":"STARLINK-1014","SEMIMAJOR_AXIS":"6925.345","REV_AT_EPOCH":"10610","OBJECT_TYPE":"PAYLOAD","REF_FRAME":"TEME","ELEMENT_SET_NO":"999","PERIOD":"95.592","TLE_LINE2":"2 44720  53.0534 213.6967 0001807  63.0921 297.0252 15.06401081106101","MEAN_MOTION_DDOT":"0.0000000000000","FILE":"3157563","APOAPSIS":"548.462","TIME_SYSTEM":"UTC","CLASSIFICATION_TYPE":"U","OBJECT_ID":"2019-074H","BSTAR":"0.00004603900000","EPHEMERIS_TYPE":"0","LAUNCH_DATE":"2019-11-11","MEAN_MOTION":"15.06401081","SITE":"AFETR","RA_OF_ASC_NODE":"213.6967","ECCENTRICITY":"0.00018070","EPOCH":"2021-10-11T19:13:19.246080","NORAD_CAT_ID":"44720","COUNTRY_CODE":"US","PERIAPSIS":"545.959","DECAY_DATE":null,"GP_ID":"186927255","TLE_LINE1":"1 44720U 19074H   21284.80091720  .00000404  00000-0  46039-4 0  9996","MEAN_MOTION_DOT":"0.00000404","MEAN_ELEMENT_THEORY":"SGP4","ARG_OF_PERICENTER":"63.0921","CENTER_NAME":"EARTH","INCLINATION":"53.0534","RCS_SIZE":"LARGE","MEAN_ANOMALY":"297.0252"},{"APOAPSIS":"548.497","TIME_SYSTEM":"UTC","TLE_LINE2":"2 44721  53.0535 214.9253 0001825  65.4327 294.6852 15.06393688106226","PERIOD":"95.593","ELEMENT_SET_NO":"999","MEAN_MOTION_DDOT":"0.0000000000000","FILE":"3157239","MEAN_MOTION":"15.06393688","SITE":"AFETR","LAUNCH_DATE":"2019-11-11","ECCENTRICITY":"0.00018250","EPOCH":"2021-10-11T12:35:15.541152","RA_OF_ASC_NODE":"214.9253","OBJECT_ID":"2019-074J","CLASSIFICATION_TYPE":"U","EPHEMERIS_TYPE":"0","BSTAR":"0.00011916000000","REV_AT_EPOCH":"10622","SEMIMAJOR_AXIS":"6925.368","OBJECT_NAME":"STARLINK-1015","OBJECT_TYPE":"PAYLOAD","REF_FRAME":"TEME","RCS_SIZE":"LARGE","MEAN_ANOMALY":"294.6852","GP_ID":"186900999","MEAN_MOTION_DOT":"0.00001493","TLE_LINE1":"1 44721U 19074J   21284.52448543  .00001493  00000-0  11916-3 0  9999","COUNTRY_CODE":"US","NORAD_CAT_ID":"44721","DECAY_DATE":null,"PERIAPSIS":"545.969","ARG_OF_PERICENTER":"65.4327","INCLINATION":"53.0535","CENTER_NAME":"EARTH","MEAN_ELEMENT_THEORY":"SGP4"},{"PERIAPSIS":"546.101","DECAY_DATE":null,"NORAD_CAT_ID":"44722","COUNTRY_CODE":"US","TLE_LINE1":"1 44722U 19074K   21284.52817193  .00000535  00000-0  54795-4 0  9990","MEAN_MOTION_DOT":"0.00000535","GP_ID":"186893054","MEAN_ELEMENT_THEORY":"SGP4","CENTER_NAME":"EARTH","INCLINATION":"53.0545","ARG_OF_PERICENTER":"66.4274","RCS_SIZE":"LARGE","MEAN_ANOMALY":"293.6884","OBJECT_NAME":"STARLINK-1016","REV_AT_EPOCH":"10606","SEMIMAJOR_AXIS":"6925.356","REF_FRAME":"TEME","OBJECT_TYPE":"PAYLOAD","MEAN_MOTION_DDOT":"0.0000000000000","FILE":"3157068","ELEMENT_SET_NO":"999","PERIOD":"95.592","TLE_LINE2":"2 44722  53.0545 214.9149 0001617  66.4274 293.6884 15.06397646106067","TIME_SYSTEM":"UTC","APOAPSIS":"548.341","BSTAR":"0.00005479500000","EPHEMERIS_TYPE":"0","CLASSIFICATION_TYPE":"U","OBJECT_ID":"2019-074K","RA_OF_ASC_NODE":"214.9149","ECCENTRICITY":"0.00016170","EPOCH":"2021-10-11T12:40:34.054752","LAUNCH_DATE":"2019-11-11","MEAN_MOTION":"15.06397646","SITE":"AFETR"},{"SEMIMAJOR_AXIS":"6925.385","REV_AT_EPOCH":"10623","OBJECT_NAME":"STARLINK-1017","OBJECT_TYPE":"PAYLOAD","REF_FRAME":"TEME","APOAPSIS":"548.397","TIME_SYSTEM":"UTC","ELEMENT_SET_NO":"999","PERIOD":"95.593","TLE_LINE2":"2 44723  53.0557 214.8489 0001657  64.2737 295.8423 15.06388224106235","MEAN_MOTION_DDOT":"0.0000000000000","FILE":"3157270","LAUNCH_DATE":"2019-11-11","SITE":"AFETR","MEAN_MOTION":"15.06388224","RA_OF_ASC_NODE":"214.8489","ECCENTRICITY":"0.00016570","EPOCH":"2021-10-11T13:01:47.887104","CLASSIFICATION_TYPE":"U","OBJECT_ID":"2019-074L","BSTAR":"0.00001221300000","EPHEMERIS_TYPE":"0","GP_ID":"186901338","TLE_LINE1":"1 44723U 19074L   21284.54291536 -.00000100  00000-0  12213-4 0  9998","MEAN_MOTION_DOT":"-0.00000100","NORAD_CAT_ID":"44723","COUNTRY_CODE":"US","PERIAPSIS":"546.102","DECAY_DATE":null,"ARG_OF_PERICENTER":"64.2737","INCLINATION":"53.0557","CENTER_NAME":"EARTH","MEAN_ELEMENT_THEORY":"SGP4","RCS_SIZE":"LARGE","MEAN_ANOMALY":"295.8423"},{"APOAPSIS":"548.309","TIME_SYSTEM":"UTC","ELEMENT_SET_NO":"999","PERIOD":"95.592","TLE_LINE2":"2 44724  53.0545 215.0165 0001590  72.4725 287.6437 15.06402016106051","MEAN_MOTION_DDOT":"0.0000000000000","FILE":"3157068","LAUNCH_DATE":"2019-11-11","MEAN_MOTION":"15.06402016","SITE":"AFETR","RA_OF_ASC_NODE":"215.0165","EPOCH":"2021-10-11T12:08:42.548928","ECCENTRICITY":"0.00015900","CLASSIFICATION_TYPE":"U","OBJECT_ID":"2019-074M","BSTAR":"0.00006491600000","EPHEMERIS_TYPE":"0","REV_AT_EPOCH":"10605","SEMIMAJOR_AXIS":"6925.342","OBJECT_NAME":"STARLINK-1019","OBJECT_TYPE":"PAYLOAD","REF_FRAME":"TEME","RCS_SIZE":"LARGE","MEAN_ANOMALY":"287.6437","GP_ID":"186894542","TLE_LINE1":"1 44724U 19074M   21284.50604802  .00000686  00000-0  64916-4 0  9994","MEAN_MOTION_DOT":"0.00000686","NORAD_CAT_ID":"44724","COUNTRY_CODE":"US","PERIAPSIS":"546.106","DECAY_DATE":null,"ARG_OF_PERICENTER":"72.4725","INCLINATION":"53.0545","CENTER_NAME":"EARTH","MEAN_ELEMENT_THEORY":"SGP4"},{"FILE":"3157068","MEAN_MOTION_DDOT":"0.0000000000000","TLE_LINE2":"2 44725  53.0536 234.6889 0001669  77.4621 282.6554 15.06401642105787","ELEMENT_SET_NO":"999","PERIOD":"95.592","TIME_SYSTEM":"UTC","APOAPSIS":"548.364","EPHEMERIS_TYPE":"0","BSTAR":"0.00011083000000","OBJECT_ID":"2019-074N","CLASSIFICATION_TYPE":"U","EPOCH":"2021-10-11T13:52:12.336384","ECCENTRICITY":"0.00016690","RA_OF_ASC_NODE":"234.6889","SITE":"AFETR","MEAN_MOTION":"15.06401642","LAUNCH_DATE":"2019-11-11","OBJECT_NAME":"STARLINK-1020","SEMIMAJOR_AXIS":"6925.344","REV_AT_EPOCH":"10578","REF_FRAME":"TEME","OBJECT_TYPE":"PAYLOAD","RCS_SIZE":"LARGE","MEAN_ANOMALY":"282.6554","DECAY_DATE":null,"PERIAPSIS":"546.053","COUNTRY_CODE":"US","NORAD_CAT_ID":"44725","MEAN_MOTION_DOT":"0.00001370","TLE_LINE1":"1 44725U 19074N   21284.57792056  .00001370  00000-0  11083-3 0  9998","GP_ID":"186893303","MEAN_ELEMENT_THEORY":"SGP4","CENTER_NAME":"EARTH","INCLINATION":"53.0536","ARG_OF_PERICENTER":"77.4621"},{"APOAPSIS":"548.357","TIME_SYSTEM":"UTC","ELEMENT_SET_NO":"999","PERIOD":"95.592","TLE_LINE2":"2 44726  53.0547 215.0411 0001643  78.3096 281.8077 15.06398272106227","MEAN_MOTION_DDOT":"0.0000000000000","FILE":"3157252","LAUNCH_DATE":"2019-11-11","MEAN_MOTION":"15.06398272","SITE":"AFETR","RA_OF_ASC_NODE":"215.0411","EPOCH":"2021-10-11T12:03:23.639616","ECCENTRICITY":"0.00016430","CLASSIFICATION_TYPE":"U","OBJECT_ID":"2019-074P","BSTAR":"0.00016068000000","EPHEMERIS_TYPE":"0","SEMIMAJOR_AXIS":"6925.354","REV_AT_EPOCH":"10622","OBJECT_NAME":"STARLINK-1021","OBJECT_TYPE":"PAYLOAD","REF_FRAME":"TEME","RCS_SIZE":"LARGE","MEAN_ANOMALY":"281.8077","GP_ID":"186901042","TLE_LINE1":"1 44726U 19074P   21284.50235694  .00002112  00000-0  16068-3 0  9995","MEAN_MOTION_DOT":"0.00002112","NORAD_CAT_ID":"44726","COUNTRY_CODE":"US","PERIAPSIS":"546.081","DECAY_DATE":null,"ARG_OF_PERICENTER":"78.3096","INCLINATION":"53.0547","CENTER_NAME":"EARTH","MEAN_ELEMENT_THEORY":"SGP4"},{"MEAN_ANOMALY":"294.2137","RCS_SIZE":"LARGE","MEAN_ELEMENT_THEORY":"SGP4","CENTER_NAME":"EARTH","INCLINATION":"53.0548","ARG_OF_PERICENTER":"65.9019","PERIAPSIS":"546.097","DECAY_DATE":null,"NORAD_CAT_ID":"44727","COUNTRY_CODE":"US","TLE_LINE1":"1 44727U 19074Q   21284.34018042  .00001543  00000-0  12246-3 0  9995","MEAN_MOTION_DOT":"0.00001543","GP_ID":"186894287","BSTAR":"0.00012246000000","EPHEMERIS_TYPE":"0","CLASSIFICATION_TYPE":"U","OBJECT_ID":"2019-074Q","RA_OF_ASC_NODE":"255.6909","EPOCH":"2021-10-11T08:09:51.588288","ECCENTRICITY":"0.00016050","LAUNCH_DATE":"2019-11-11","MEAN_MOTION":"15.06401745","SITE":"AFETR","FILE":"3157068","MEAN_MOTION_DDOT":"0.0000000000000","ELEMENT_SET_NO":"999","PERIOD":"95.592","TLE_LINE2":"2 44727  53.0548 255.6909 0001605  65.9019 294.2137 15.06401745105488","TIME_SYSTEM":"UTC","APOAPSIS":"548.320","REF_FRAME":"TEME","OBJECT_TYPE":"PAYLOAD","OBJECT_NAME":"STARLINK-1022","SEMIMAJOR_AXIS":"6925.343","REV_AT_EPOCH":"10548"}];
